IDEFIX & ARIANE 42P R/B 
1 27422U 02021B   26052.76380240  .00000249  00000+0  11125-3 0  9994
2 27422  98.5855 351.5620 0010796 231.7352 128.2860 14.31013653241749
AQUA                    
1 27424U 02022A   26052.93733105  .00000879  00000+0  18543-3 0  9998
2 27424  98.4146  20.0190 0001016  47.4035 344.4294 14.61933712266434
CZ-4B R/B               
1 27432U 02024C   26052.74261421  .00000013  00000+0  29190-4 0  9996
2 27432  98.8878 106.2269 0051037  68.9257  40.0490 14.14544570226986
MIDORI II (ADEOS-II)    
1 27597U 02056A   26052.77254069  .00000237  00000+0  11083-3 0  9995
2 27597  98.7741  11.1432 0002050  65.0125 295.1270 14.29271930208022
H-2A R/B                
1 27601U 02056E   26052.79591964  .00000246  00000+0  10074-3 0  9990
2 27601  98.3174  13.7695 0069517 208.1501 213.3620 14.33748797211831
CZ-4B R/B               
1 28059U 03049C   26052.91068768  .00000365  00000+0  95421-4 0  9998
2 28059  98.6864  47.1986 0047025 280.2505  79.3390 14.55002214184303
CZ-2C R/B               
1 28222U 04012C   26052.73657131  .00046082  00000+0  51441-3 0  9998
2 28222  97.7268 116.5398 0014433  12.9906 347.1720 15.62531478201786
SL-16 R/B               
1 28353U 04021B   26052.75884428  .00000210  00000+0  13419-3 0  9992
2 28353  70.9989 265.9268 0003298  46.5486 313.5911 14.14597812120589
CZ-4B R/B               
1 28415U 04035C   26052.61254780  .00007085  00000+0  25221-3 0  9994
2 28415  97.3522  87.0495 0033041  28.8079 331.4976 15.28739770177454
CZ-2C R/B               
1 28480U 04046B   26052.77889586  .00000107  00000+0  55088-4 0  9996
2 28480  98.1990 328.7518 0138891 201.4937 158.0379 14.26986145106231
ARIANE 5 R/B            
1 28499U 04049H   26052.93569310  .00000684  00000+0  81842-4 0  9994
2 28499  98.2599 220.8059 0085002  42.8067 317.9724 14.85232580143452
CZ-2D R/B               
1 28738U 05024B   26052.60219692  .00035856  00000+0  46736-3 0  9994
2 28738  97.3614  67.1773 0007531  85.1202 275.0914 15.58610867137270
