CCSDS_OMM_VERS = 2.0
CREATION_DATE  = 
ORIGINATOR     = 

OBJECT_NAME    = IDEFIX & ARIANE 42P R/B
OBJECT_ID      = 2002-021B
CENTER_NAME    = EARTH
REF_FRAME      = TEME
TIME_SYSTEM    = UTC
MEAN_ELEMENT_THEORY = SGP/SGP4

EPOCH          = 2026-02-21T18:19:52.527360
MEAN_MOTION    = 14.31013653
ECCENTRICITY   = .00107962
INCLINATION    = 98.5855
RA_OF_ASC_NODE = 351.5620
ARG_OF_PERICENTER = 231.7352
MEAN_ANOMALY   = 128.2860

EPHEMERIS_TYPE = 0
CLASSIFICATION_TYPE = U
NORAD_CAT_ID   = 27422
ELEMENT_SET_NO = 999
REV_AT_EPOCH   = 24174
BSTAR          = .11125426E-3
MEAN_MOTION_DOT = .249E-5
MEAN_MOTION_DDOT = 0

CCSDS_OMM_VERS = 2.0
CREATION_DATE  = 
ORIGINATOR     = 

OBJECT_NAME    = AQUA
OBJECT_ID      = 2002-022A
CENTER_NAME    = EARTH
REF_FRAME      = TEME
TIME_SYSTEM    = UTC
MEAN_ELEMENT_THEORY = SGP/SGP4

EPOCH          = 2026-02-21T22:29:45.402720
MEAN_MOTION    = 14.61933712
ECCENTRICITY   = .0001016
INCLINATION    = 98.4146
RA_OF_ASC_NODE = 20.0190
ARG_OF_PERICENTER = 47.4035
MEAN_ANOMALY   = 344.4294

EPHEMERIS_TYPE = 0
CLASSIFICATION_TYPE = U
NORAD_CAT_ID   = 27424
ELEMENT_SET_NO = 999
REV_AT_EPOCH   = 26643
BSTAR          = .18542883E-3
MEAN_MOTION_DOT = .879E-5
MEAN_MOTION_DDOT = 0

CCSDS_OMM_VERS = 2.0
CREATION_DATE  = 
ORIGINATOR     = 

OBJECT_NAME    = CZ-4B R/B
OBJECT_ID      = 2002-024C
CENTER_NAME    = EARTH
REF_FRAME      = TEME
TIME_SYSTEM    = UTC
MEAN_ELEMENT_THEORY = SGP/SGP4

EPOCH          = 2026-02-21T17:49:21.867744
MEAN_MOTION    = 14.14544570
ECCENTRICITY   = .00510375
INCLINATION    = 98.8878
RA_OF_ASC_NODE = 106.2269
ARG_OF_PERICENTER = 68.9257
MEAN_ANOMALY   = 40.0490

EPHEMERIS_TYPE = 0
CLASSIFICATION_TYPE = U
NORAD_CAT_ID   = 27432
ELEMENT_SET_NO = 999
REV_AT_EPOCH   = 22698
BSTAR          = .2919029E-4
MEAN_MOTION_DOT = .13E-6
MEAN_MOTION_DDOT = 0

CCSDS_OMM_VERS = 2.0
CREATION_DATE  = 
ORIGINATOR     = 

OBJECT_NAME    = MIDORI II (ADEOS-II)
OBJECT_ID      = 2002-056A
CENTER_NAME    = EARTH
REF_FRAME      = TEME
TIME_SYSTEM    = UTC
MEAN_ELEMENT_THEORY = SGP/SGP4

EPOCH          = 2026-02-21T18:32:27.515616
MEAN_MOTION    = 14.29271930
ECCENTRICITY   = .00020503
INCLINATION    = 98.7741
RA_OF_ASC_NODE = 11.1432
ARG_OF_PERICENTER = 65.0125
MEAN_ANOMALY   = 295.1270

EPHEMERIS_TYPE = 0
CLASSIFICATION_TYPE = U
NORAD_CAT_ID   = 27597
ELEMENT_SET_NO = 999
REV_AT_EPOCH   = 20802
BSTAR          = .1108321E-3
MEAN_MOTION_DOT = .237E-5
MEAN_MOTION_DDOT = 0

CCSDS_OMM_VERS = 2.0
CREATION_DATE  = 
ORIGINATOR     = 

OBJECT_NAME    = H-2A R/B
OBJECT_ID      = 2002-056E
CENTER_NAME    = EARTH
REF_FRAME      = TEME
TIME_SYSTEM    = UTC
MEAN_ELEMENT_THEORY = SGP/SGP4

EPOCH          = 2026-02-21T19:06:07.456896
MEAN_MOTION    = 14.33748797
ECCENTRICITY   = .00695173
INCLINATION    = 98.3174
RA_OF_ASC_NODE = 13.7695
ARG_OF_PERICENTER = 208.1501
MEAN_ANOMALY   = 213.3620

EPHEMERIS_TYPE = 0
CLASSIFICATION_TYPE = U
NORAD_CAT_ID   = 27601
ELEMENT_SET_NO = 999
REV_AT_EPOCH   = 21183
BSTAR          = .10073994E-3
MEAN_MOTION_DOT = .246E-5
MEAN_MOTION_DDOT = 0

CCSDS_OMM_VERS = 2.0
CREATION_DATE  = 
ORIGINATOR     = 

OBJECT_NAME    = CZ-4B R/B
OBJECT_ID      = 2003-049C
CENTER_NAME    = EARTH
REF_FRAME      = TEME
TIME_SYSTEM    = UTC
MEAN_ELEMENT_THEORY = SGP/SGP4

EPOCH          = 2026-02-21T21:51:23.415552
MEAN_MOTION    = 14.55002214
ECCENTRICITY   = .0047025
INCLINATION    = 98.6864
RA_OF_ASC_NODE = 47.1986
ARG_OF_PERICENTER = 280.2505
MEAN_ANOMALY   = 79.3390

EPHEMERIS_TYPE = 0
CLASSIFICATION_TYPE = U
NORAD_CAT_ID   = 28059
ELEMENT_SET_NO = 999
REV_AT_EPOCH   = 18430
BSTAR          = .95420839E-4
MEAN_MOTION_DOT = .365E-5
MEAN_MOTION_DDOT = 0

CCSDS_OMM_VERS = 2.0
CREATION_DATE  = 
ORIGINATOR     = 

OBJECT_NAME    = CZ-2C R/B
OBJECT_ID      = 2004-012C
CENTER_NAME    = EARTH
REF_FRAME      = TEME
TIME_SYSTEM    = UTC
MEAN_ELEMENT_THEORY = SGP/SGP4

EPOCH          = 2026-02-21T17:40:39.761184
MEAN_MOTION    = 15.62531478
ECCENTRICITY   = .00144337
INCLINATION    = 97.7268
RA_OF_ASC_NODE = 116.5398
ARG_OF_PERICENTER = 12.9906
MEAN_ANOMALY   = 347.1720

EPHEMERIS_TYPE = 0
CLASSIFICATION_TYPE = U
NORAD_CAT_ID   = 28222
ELEMENT_SET_NO = 999
REV_AT_EPOCH   = 20178
BSTAR          = .51440741E-3
MEAN_MOTION_DOT = .46082E-3
MEAN_MOTION_DDOT = 0

CCSDS_OMM_VERS = 2.0
CREATION_DATE  = 
ORIGINATOR     = 

OBJECT_NAME    = SL-16 R/B
OBJECT_ID      = 2004-021B
CENTER_NAME    = EARTH
REF_FRAME      = TEME
TIME_SYSTEM    = UTC
MEAN_ELEMENT_THEORY = SGP/SGP4

EPOCH          = 2026-02-21T18:12:44.145792
MEAN_MOTION    = 14.14597812
ECCENTRICITY   = .00032983
INCLINATION    = 70.9989
RA_OF_ASC_NODE = 265.9268
ARG_OF_PERICENTER = 46.5486
MEAN_ANOMALY   = 313.5911

EPHEMERIS_TYPE = 0
CLASSIFICATION_TYPE = U
NORAD_CAT_ID   = 28353
ELEMENT_SET_NO = 999
REV_AT_EPOCH   = 12058
BSTAR          = .13419396E-3
MEAN_MOTION_DOT = .21E-5
MEAN_MOTION_DDOT = 0

CCSDS_OMM_VERS = 2.0
CREATION_DATE  = 
ORIGINATOR     = 

OBJECT_NAME    = CZ-4B R/B
OBJECT_ID      = 2004-035C
CENTER_NAME    = EARTH
REF_FRAME      = TEME
TIME_SYSTEM    = UTC
MEAN_ELEMENT_THEORY = SGP/SGP4

EPOCH          = 2026-02-21T14:42:04.129920
MEAN_MOTION    = 15.28739770
ECCENTRICITY   = .0033041
INCLINATION    = 97.3522
RA_OF_ASC_NODE = 87.0495
ARG_OF_PERICENTER = 28.8079
MEAN_ANOMALY   = 331.4976

EPHEMERIS_TYPE = 0
CLASSIFICATION_TYPE = U
NORAD_CAT_ID   = 28415
ELEMENT_SET_NO = 999
REV_AT_EPOCH   = 17745
BSTAR          = .25221E-3
MEAN_MOTION_DOT = .7085E-4
MEAN_MOTION_DDOT = 0

CCSDS_OMM_VERS = 2.0
CREATION_DATE  = 
ORIGINATOR     = 

OBJECT_NAME    = CZ-2C R/B
OBJECT_ID      = 2004-046B
CENTER_NAME    = EARTH
REF_FRAME      = TEME
TIME_SYSTEM    = UTC
MEAN_ELEMENT_THEORY = SGP/SGP4

EPOCH          = 2026-02-21T18:41:36.602304
MEAN_MOTION    = 14.26986145
ECCENTRICITY   = .0138891
INCLINATION    = 98.1990
RA_OF_ASC_NODE = 328.7518
ARG_OF_PERICENTER = 201.4937
MEAN_ANOMALY   = 158.0379

EPHEMERIS_TYPE = 0
CLASSIFICATION_TYPE = U
NORAD_CAT_ID   = 28480
ELEMENT_SET_NO = 999
REV_AT_EPOCH   = 10623
BSTAR          = .55087785E-4
MEAN_MOTION_DOT = .107E-5
MEAN_MOTION_DDOT = 0

CCSDS_OMM_VERS = 2.0
CREATION_DATE  = 
ORIGINATOR     = 

OBJECT_NAME    = ARIANE 5 R/B
OBJECT_ID      = 2004-049H
CENTER_NAME    = EARTH
REF_FRAME      = TEME
TIME_SYSTEM    = UTC
MEAN_ELEMENT_THEORY = SGP/SGP4

EPOCH          = 2026-02-21T22:27:23.883840
MEAN_MOTION    = 14.85232580
ECCENTRICITY   = .00850023
INCLINATION    = 98.2599
RA_OF_ASC_NODE = 220.8059
ARG_OF_PERICENTER = 42.8067
MEAN_ANOMALY   = 317.9724

EPHEMERIS_TYPE = 0
CLASSIFICATION_TYPE = U
NORAD_CAT_ID   = 28499
ELEMENT_SET_NO = 999
REV_AT_EPOCH   = 14345
BSTAR          = .81841856E-4
MEAN_MOTION_DOT = .684E-5
MEAN_MOTION_DDOT = 0

CCSDS_OMM_VERS = 2.0
CREATION_DATE  = 
ORIGINATOR     = 

OBJECT_NAME    = CZ-2D R/B
OBJECT_ID      = 2005-024B
CENTER_NAME    = EARTH
REF_FRAME      = TEME
TIME_SYSTEM    = UTC
MEAN_ELEMENT_THEORY = SGP/SGP4

EPOCH          = 2026-02-21T14:27:09.813888
MEAN_MOTION    = 15.58610867
ECCENTRICITY   = .0007531
INCLINATION    = 97.3614
RA_OF_ASC_NODE = 67.1773
ARG_OF_PERICENTER = 85.1202
MEAN_ANOMALY   = 275.0914

EPHEMERIS_TYPE = 0
CLASSIFICATION_TYPE = U
NORAD_CAT_ID   = 28738
ELEMENT_SET_NO = 999
REV_AT_EPOCH   = 13727
BSTAR          = .46736E-3
MEAN_MOTION_DOT = .35856E-3
MEAN_MOTION_DDOT = 0

